,Zip,Best Season,2nd Best Season,3rd Best Season,4th Best Season,Off Season,Best color,ZObjects,Lat,Lon
Abraham Lincoln Birthplace NHP,42748,7,6,8,5,1,green,<Zip: 42748>,37.56,-85.73
Acadia NP,4660,8,7,9,6,12,teal,<Zip: 04660>,44.31,-68.36
Adams NHP,2169,7,8,6,9,1,green,<Zip: 02169>,42.26,-71
African Burial Ground NM,10007,7,5,6,4,1,green,<Zip: 10007>,40.71,-73.99
Agate Fossil Beds NM,69346,7,6,8,9,2,green,<Zip: 69346>,42.68,-103.88
Alibates Flint Quarries NM,79036,5,10,6,9,1,yellow,<Zip: 79036>,35.64,-101.59
Allegheny Portage Railroad NHS,16641,7,8,6,5,2,green,<Zip: 16641>,40.48,-78.55
Amistad NRA,78840,3,6,4,7,12,orange,<Zip: 78840>,29.37,-100.89
Andersonville NHS,31711,5,4,3,6,1,yellow,<Zip: 31711>,32.19,-84.14
Andrew Johnson NHS,37743,5,6,7,3,2,yellow,<Zip: 37743>,36.16,-82.81
Aniakchak NM & PRES,99613,9,8,7,10,12,blue,<Zip: 99613>,58.75,-156.54
Antietam NB,21782,7,6,9,8,1,green,,39.45,-77.75
Apostle Islands NL,54850,8,7,6,9,12,teal,<Zip: 54850>,46.81,-90.68
Appomattox Court House NHP,24522,4,7,5,6,2,gold,<Zip: 24522>,37.35,-78.82
Arches NP,84532,5,6,7,8,1,yellow,<Zip: 84532>,38.45,-109.6
Arkansas Post NMEM,72055,5,6,7,8,2,yellow,<Zip: 72055>,34.11,-91.37
Arlington House The RE Lee MEM,22211,5,4,6,7,1,yellow,,38.87,-77.1
Assateague Island NS,21811,7,8,6,9,12,green,,38.34,-75.19
Aztec Ruins NM,87410,7,6,8,5,1,green,<Zip: 87410>,36.82,-108
Badlands NP,57790,7,8,6,9,2,green,<Zip: 57790>,43.99,-102.23
Bandelier NM,87544,7,5,6,8,1,green,<Zip: 87544>,35.89,-106.28
Bent's Old Fort NHS,81050,7,6,5,8,1,green,<Zip: 81050>,37.98,-103.54
Bering Land Bridge NPRES,99772,7,8,10,3,12,green,<Zip: 99772>,66.02,-165.91
Big Bend NP,79834,3,4,11,2,7,orange,<Zip: 79834>,29.28,-103.18
Big Cypress NPRES,34141,2,3,1,12,9,coral,<Zip: 34141>,25.9,-81.3
Big Hole NB,59761,7,8,6,9,12,green,<Zip: 59761>,45.54,-113.54
Big South Fork NRRA,37841,10,5,6,7,2,slateblue,<Zip: 37841>,36.5,-84.51
Big Thicket NPRES,77625,7,8,11,10,2,green,<Zip: 77625>,30.37,-94.31
Bighorn Canyon NRA,59035,7,8,6,5,2,green,<Zip: 59035>,45.24,-107.93
Biscayne NP,33032,7,5,6,8,12,green,<Zip: 33032>,25.46,-80.45
Black Canyon of the Gunnison NP,81415,7,6,8,9,2,green,<Zip: 81415>,38.7,-107.6
Blue Ridge PKWY,24179,10,7,8,6,2,slateblue,<Zip: 24179>,37.27,-79.88
Bluestone NSR,25971,7,8,6,9,1,green,<Zip: 25971>,37.5,-80.98
Booker T Washington NM,24101,6,7,5,8,1,greenyellow,<Zip: 24101>,37.18,-79.8
Boston African American NHS,2108,7,8,6,5,1,green,<Zip: 02108>,42.35,-71.06
Boston NHP,2109,7,8,6,10,1,green,<Zip: 02109>,42.35,-71.06
Brices Cross Roads,38824,8,7,5,6,1,teal,<Zip: 38824>,34.5,-88.63
Brown v Board of Education NHS,66612,5,7,4,6,12,yellow,<Zip: 66612>,39.03,-95.69
Bryce Canyon NP,84764,7,8,9,6,1,green,<Zip: 84764>,37.63,-112.2
Buck Island Reef NM,820,3,2,4,7,9,orange,<Zip: 00820>,17.74,-64.7
Buffalo NR,72675,6,7,5,8,2,greenyellow,<Zip: 72675>,35.98,-92.81
Cabrillo NM,92106,7,8,3,1,10,green,<Zip: 92106>,32.72,-117.23
Canaveral NS,32796,3,7,5,4,11,orange,<Zip: 32796>,28.58,-80.82
Cane River Creole NHP,71457,10,12,4,6,1,slateblue,<Zip: 71457>,31.75,-93.09
Canyon de Chelly NM,86503,8,7,6,9,12,teal,<Zip: 86503>,36.23,-109.57
Canyonlands NP,84532,5,9,6,4,1,yellow,<Zip: 84532>,38.45,-109.6
Cape Cod NS,2536,8,7,9,6,1,teal,<Zip: 02536>,41.56,-70.55
Cape Hatteras NS,27915,7,8,6,9,2,green,,35.35,-75.5
Cape Krusenstern NM,99761,9,11,8,10,2,blue,<Zip: 99761>,67.57,-163
Cape Lookout NS,28531,7,8,6,9,2,green,,34.71,-76.52
Capitol Reef NP,84775,9,5,6,7,1,blue,<Zip: 84775>,38.33,-111.06
Capulin Volcano NM,88414,7,6,8,5,2,green,<Zip: 88414>,36.74,-103.99
Carl Sandburg Home NHS,28731,10,7,5,4,2,slateblue,,35.27,-82.41
Carlsbad Caverns NP,88220,7,6,3,8,1,green,<Zip: 88220>,32.4,-104.23
Casa Grande Ruins NM,85128,3,2,1,4,8,orange,<Zip: 85128>,32.97,-111.49
Castillo de San Marcos NM,32084,7,4,3,5,9,green,<Zip: 32084>,29.89,-81.31
Castle Clinton NM,10004,7,8,6,5,1,green,<Zip: 10004>,40.71,-73.99
Catoctin Mountain Park,21788,8,6,10,5,1,teal,,39.6,-77.41
Cedar Breaks NM,84719,7,8,9,6,4,green,<Zip: 84719>,37.64,-112.8
Cesar E Chavez NM,93531,3,4,5,6,2,orange,<Zip: 93531>,35.23,-118.62
Chaco Culture NHP,87037,10,5,6,7,1,slateblue,<Zip: 87037>,36.26,-107.74
Chamizal NMEM,79905,7,6,8,5,1,green,<Zip: 79905>,31.84,-106.43
Channel Islands NP,93001,7,8,6,5,12,green,<Zip: 93001>,34.33,-119.31
Charles Pinckney NHS,29464,4,3,9,7,12,gold,,32.77,-79.93
Charles Young Buffalo Soldiers NM,45385,7,4,10,11,2,green,<Zip: 45385>,39.68,-83.94
Chattahoochee River NRA,30350,6,7,5,8,1,greenyellow,,34.03,-84.35
Chesapeake & Ohio Canal NHP,20854,8,7,5,6,2,teal,,39.03,-77.2
Chickamauga & Chattanooga NMP,30742,7,6,5,4,1,green,<Zip: 30742>,34.92,-85.25
Chickasaw NRA,73086,7,6,5,8,12,green,<Zip: 73086>,34.5,-96.97
Chiricahua NM,85643,3,4,2,5,8,orange,<Zip: 85643>,32.43,-109.88
Christiansted NHS,820,3,2,1,4,9,orange,<Zip: 00820>,17.74,-64.7
City of Rocks NRES,83342,6,9,7,5,1,greenyellow,<Zip: 83342>,42.22,-113.29
Clara Barton NHS,20812,6,4,5,7,1,greenyellow,,38.94,-77.19
Colonial NHP,23690,7,6,8,4,1,green,,37.22,-76.51
Colorado NM,81521,5,7,6,8,1,yellow,<Zip: 81521>,39.15,-108.72
Congaree NP,29061,3,4,5,10,12,orange,,33.92,-80.84
Coronado NMEM,85615,3,4,1,2,7,orange,<Zip: 85615>,31.44,-110.23
Cowpens NB,29341,7,1,8,6,12,green,,35.1,-81.69
Crater Lake NP,97604,7,8,9,6,12,green,<Zip: 97604>,42.92,-122.12
Craters of the Moon NM,83213,7,8,6,9,12,green,<Zip: 83213>,43.65,-113.28
Cumberland Gap NHP,40965,6,7,10,8,2,greenyellow,<Zip: 40965>,36.61,-83.72
Cumberland Island NS,31558,7,4,3,10,1,green,<Zip: 31558>,30.75,-81.57
Curecanti NRA,81230,7,8,6,9,12,green,<Zip: 81230>,38.54,-106.92
Cuyahoga Valley NP,44141,7,6,8,5,11,green,<Zip: 44141>,41.3,-81.61
Dayton Aviation Heritage NHP,45433,5,7,6,8,1,yellow,<Zip: 45433>,39.77,-84.19
De Soto NMEM,34209,3,2,1,4,8,orange,<Zip: 34209>,27.48,-82.57
Death Valley NP,92328,4,3,8,9,12,gold,<Zip: 92328>,36.29,-116.45
Delaware Water Gap NRA,18324,8,7,6,5,1,teal,<Zip: 18324>,41.09,-75
Denali NP & PRES,99755,7,8,6,9,12,green,<Zip: 99755>,63.64,-148.81
Devils Postpile NM,93546,8,7,9,6,12,teal,<Zip: 93546>,37.58,-118.84
Devils Tower NM,82714,8,7,6,9,1,teal,<Zip: 82714>,44.6,-104.73
Dinosaur NM,81640,7,6,8,9,1,green,<Zip: 81640>,40.52,-108.08
Dry Tortugas NP,33040,5,7,6,4,9,yellow,<Zip: 33040>,24.55,-81.78
Edgar Allan Poe NHS,19123,10,7,8,5,2,slateblue,<Zip: 19123>,39.95,-75.16
Effigy Mounds NM,52146,10,7,9,8,12,slateblue,<Zip: 52146>,43.2,-91.15
Eisenhower NHS,17325,9,6,7,10,1,blue,<Zip: 17325>,39.83,-77.23
El Malpais NM,87020,7,6,8,5,1,green,<Zip: 87020>,35.15,-107.83
El Morro NM,87321,5,7,8,6,1,yellow,<Zip: 87321>,35.13,-108.49
Eleanor Roosevelt NHS,12538,10,8,7,9,1,slateblue,<Zip: 12538>,41.78,-73.93
Eugene O'Neill NHS,94526,5,9,7,3,12,yellow,<Zip: 94526>,37.81,-121.97
Everglades NP,33030,3,2,1,4,9,orange,<Zip: 33030>,25.46,-80.45
Federal Hall NMEM,10005,8,7,6,4,1,teal,<Zip: 10005>,40.71,-73.99
Fire Island NS,11770,8,7,9,6,1,teal,<Zip: 11770>,40.64,-73.15
First Ladies NHS,12538,12,6,9,7,1,darkmagenta,<Zip: 12538>,41.78,-73.93
Flight 93 NMEM,15563,9,8,7,10,2,blue,<Zip: 15563>,40.1,-78.95
Florissant Fossil Beds NM,80816,7,8,6,9,2,green,<Zip: 80816>,38.95,-105.29
Ford's Theatre NHS,20004,4,5,6,3,1,gold,,38.89,-77.02
Fort Bowie NHS,85605,3,2,4,1,8,orange,<Zip: 85605>,32.28,-109.5
Fort Caroline NMEM,32225,3,4,2,11,9,orange,<Zip: 32225>,30.33,-81.65
Fort Davis NHS,79734,3,7,4,5,1,orange,<Zip: 79734>,30.59,-103.9
Fort Donelson NB,37058,4,5,7,6,1,gold,<Zip: 37058>,36.48,-87.84
Fort Frederica NM,31522,3,4,7,6,12,orange,<Zip: 31522>,31.21,-81.37
Fort Laramie NHS,82212,7,6,8,9,2,green,<Zip: 82212>,42.21,-104.51
Fort Larned NHS,67550,7,6,5,8,1,green,<Zip: 67550>,38.18,-99.1
Fort Matanzas NM,32080,7,5,8,6,12,green,<Zip: 32080>,29.8,-81.26
Fort McHenry NM & HS,21230,6,5,7,8,1,greenyellow,,39.27,-76.62
Fort Necessity NB,15437,7,6,5,8,2,green,<Zip: 15437>,39.78,-79.61
Fort Point NHS,94129,8,7,6,5,2,teal,<Zip: 94129>,37.79,-122.46
Fort Pulaski NM,31410,7,4,5,6,1,green,<Zip: 31410>,32.08,-81.1
Fort Raleigh NHS,27954,7,6,8,5,1,green,,35.91,-75.67
Fort Scott NHS,66701,5,6,7,9,1,yellow,<Zip: 66701>,37.83,-94.7
Fort Smith NHS,72901,7,5,6,10,1,green,<Zip: 72901>,35.36,-94.38
Fort Stanwix NM,13440,7,8,9,6,1,green,<Zip: 13440>,43.21,-75.47
Fort Sumter NM,29412,7,4,6,8,12,green,,32.78,-79.94
Fort Union NM,87753,7,6,8,5,12,green,<Zip: 87753>,35.79,-104.98
Fort Union Trading Post NHS,58801,6,8,7,5,1,greenyellow,<Zip: 58801>,48.16,-103.63
Fort Vancouver NHS,98661,7,8,6,9,12,green,<Zip: 98661>,45.64,-122.63
Fort Washington Park,20744,7,8,5,6,1,green,,38.75,-76.99
Fossil Butte NM,83101,7,8,6,9,12,green,<Zip: 83101>,41.78,-110.55
Franklin Delano Roosevelt MEM,20242,4,5,6,3,1,gold,,38.87,-77.1
Frederick Douglass NHS,20020,7,5,6,4,12,green,,38.86,-76.97
Frederick Law Olmsted NHS,2445,9,5,6,7,2,blue,<Zip: 02445>,42.32,-71.14
Fredericksburg & Spotsylvania NMP,22405,5,7,6,4,1,yellow,,38.3,-77.46
Friendship Hill NHS,15474,9,5,7,10,1,blue,<Zip: 15474>,39.73,-79.9
Gates of the Arctic NP & PRES,99721,7,8,6,9,10,green,<Zip: 99721>,68.15,-151.71
Gateway NRA,7732,7,8,6,9,1,green,<Zip: 07732>,40.4,-73.99
Gauley River NRA,25938,9,10,7,8,12,blue,<Zip: 25938>,38.14,-81.03
General Grant NMEM,10027,7,8,4,5,1,green,<Zip: 10027>,40.71,-73.99
George Rogers Clark NHP,47591,5,7,4,8,1,yellow,,38.67,-87.51
George Washington Birthplace NM,22443,7,5,6,4,1,green,,38.22,-76.97
George Washington Carver NM,64840,5,6,7,4,12,yellow,<Zip: 64840>,36.99,-94.31
George Washington MEM PKWY,22202,6,7,5,4,1,greenyellow,,38.87,-77.1
Gettysburg NMP,17325,7,5,6,8,1,green,<Zip: 17325>,39.83,-77.23
Gila Cliff Dwellings NM,88061,7,3,5,6,12,green,<Zip: 88061>,32.78,-108.26
Glacier Bay NP & PRES,99826,7,8,6,9,12,green,<Zip: 99826>,58.42,-135.78
Glacier NP,59936,7,8,6,9,12,green,<Zip: 59936>,48.61,-113.81
Glen Canyon NRA,84533,7,6,8,5,12,green,<Zip: 84533>,37.57,-110.32
Golden Gate NRA,94123,7,5,6,8,12,green,<Zip: 94123>,37.8,-122.43
Golden Spike NHS,84302,7,5,8,6,1,green,<Zip: 84302>,41.51,-112.04
Governors Island NM,10004,8,7,6,9,12,teal,<Zip: 10004>,40.71,-73.99
Grand Canyon NP,86052,7,8,6,5,1,green,<Zip: 86052>,36.3,-112.08
Grand Portage NM,55605,8,7,6,9,1,teal,<Zip: 55605>,47.96,-89.68
Grand Teton NP,83012,7,8,6,9,11,green,<Zip: 83012>,43.65,-110.72
Grant-Kohrs Ranch NHS,59722,7,8,6,9,1,green,<Zip: 59722>,46.37,-112.72
Great Basin NP,89311,7,8,6,9,1,green,<Zip: 89311>,38.9,-114.2
Great Sand Dunes NP & PRES,81146,7,6,8,5,1,green,<Zip: 81146>,37.65,-105.88
Great Smoky Mountains NP,37738,7,6,10,8,1,green,<Zip: 37738>,35.72,-83.49
Greenbelt Park,20770,8,6,7,5,12,teal,,39,-76.88
Guadalupe Mountains NP,79847,3,10,4,5,1,orange,<Zip: 79847>,31.74,-105.08
Guilford Courthouse NMP,27410,7,3,5,6,2,green,,36.04,-79.8
Gulf Islands NS,39564,7,6,5,8,1,green,<Zip: 39564>,30.4,-88.8
Hagerman Fossil Beds NM,83332,7,5,6,8,12,green,<Zip: 83332>,42.81,-114.91
Haleakala NP,96790,7,8,6,5,11,green,<Zip: 96790>,20.72,-156.34
Hamilton Grange NMEM,10031,10,6,4,5,2,slateblue,<Zip: 10031>,40.71,-73.99
Hampton NHS,21286,12,7,5,6,2,darkmagenta,,39.39,-76.58
Harpers Ferry NHP,25425,7,10,6,5,1,green,<Zip: 25425>,39.32,-77.74
Harry S Truman NHS,64030,7,6,8,5,1,green,<Zip: 64030>,38.88,-94.52
Hawaii Volcanoes NP,96718,8,7,6,2,4,teal,<Zip: 96718>,19.43,-155.26
Herbert Hoover NHS,52358,8,7,12,5,2,teal,<Zip: 52358>,41.67,-91.34
Home of Franklin D Roosevelt NHS,12538,10,8,7,9,1,slateblue,<Zip: 12538>,41.78,-73.93
Homestead NM of America,68310,6,5,7,9,1,greenyellow,<Zip: 68310>,40.26,-96.74
Hopewell Culture NHP,45601,7,6,5,10,1,green,<Zip: 45601>,39.33,-82.98
Hopewell Furnace NHS,19520,7,8,5,9,2,green,<Zip: 19520>,40.15,-75.83
Horseshoe Bend NMP,36256,3,6,5,7,12,orange,<Zip: 36256>,33.05,-85.63
Hot Springs NP,71901,6,7,8,9,1,greenyellow,<Zip: 71901>,34.5,-93.05
Hovenweep NM,84534,5,9,6,7,1,yellow,<Zip: 84534>,37.21,-109.19
Hubbell Trading Post NHS,86505,5,6,8,4,1,yellow,<Zip: 86505>,35.67,-109.65
Independence NHP,19106,7,5,6,8,1,green,<Zip: 19106>,39.95,-75.16
Indiana Dunes NL,46304,7,8,6,5,12,green,<Zip: 46304>,41.6,-87.05
Isle Royale NP,49931,8,7,6,9,11,teal,,47.11,-88.57
James A Garfield NHS,44060,7,8,5,6,1,green,<Zip: 44060>,41.69,-81.33
Jean Lafitte NHP & PRES,70072,4,3,5,6,9,gold,<Zip: 70072>,29.88,-90.11
Jefferson NEM,63102,7,8,6,5,1,green,,38.62,-90.19
Jewel Cave NM,57730,7,8,6,9,1,green,<Zip: 57730>,43.76,-103.6
Jimmy Carter NHS,31780,4,9,3,5,1,gold,<Zip: 31780>,32.03,-84.39
"John D Rockefeller, Jr MEM PKWY",83013,7,8,6,9,4,green,<Zip: 83013>,43.84,-110.5
John Day Fossil Beds NM,97848,7,8,6,9,12,green,<Zip: 97848>,44.69,-119.54
John F Kennedy Center For Pa,20566,4,5,6,3,2,gold,,38.89,-77.05
John F Kennedy NHS,2446,7,8,10,6,12,green,<Zip: 02446>,42.32,-71.14
John Muir NHS,94553,4,5,3,8,12,gold,<Zip: 94553>,37.98,-122.15
Johnstown Flood NMEM,15956,8,5,7,10,1,teal,<Zip: 15956>,40.36,-78.79
Joshua Tree NP,92277,3,4,11,2,7,orange,<Zip: 92277>,34.24,-115.86
Kalaupapa NHP,96742,11,12,1,10,9,blueviolet,<Zip: 96742>,21.19,-156.98
Kaloko Honokohau NHP,96740,7,1,3,12,11,green,<Zip: 96740>,19.63,-155.99
Katmai NP & PRES,99613,7,8,6,9,11,green,<Zip: 99613>,58.75,-156.54
Kenai Fjords NP,99664,7,8,6,9,1,green,<Zip: 99664>,60.05,-149.33
Kennesaw Mountain NBP,30152,5,6,9,7,12,yellow,,34,-84.63
Kings Canyon NP,93271,7,8,6,9,12,green,<Zip: 93271>,36.44,-118.86
Kings Mountain NMP,29702,10,7,5,6,1,slateblue,,35.11,-81.49
Klondike Gold Rush NHP Seattle,99840,8,7,6,9,12,teal,<Zip: 99840>,59.57,-135.35
Knife River Indian Villages NHS,58571,7,6,8,9,12,green,<Zip: 58571>,47.31,-101.38
Kobuk Valley NP,99752,9,8,7,11,2,blue,<Zip: 99752>,67.24,-161.19
Korean War Veterans Memorial,20024,5,4,6,7,1,yellow,,38.88,-77.02
Lake Chelan NRA,98852,7,8,9,6,1,green,<Zip: 98852>,48.34,-120.7
Lake Clark NP & PRES,99640,8,7,9,6,1,teal,<Zip: 99640>,59.96,-154.87
Lake Mead NRA,86443,6,7,8,5,12,greenyellow,<Zip: 86443>,36.02,-114.29
Lake Meredith NRA,79036,6,7,5,8,12,greenyellow,<Zip: 79036>,35.64,-101.59
Lake Roosevelt NRA,99116,7,8,6,9,1,green,<Zip: 99116>,48.03,-118.94
Lassen Volcanic NP,96063,7,8,9,6,2,green,<Zip: 96063>,40.38,-121.57
Lava Beds NM,96134,7,8,6,9,1,green,<Zip: 96134>,41.8,-121.46
Lewis & Clark NHP,97103,8,7,6,9,1,teal,<Zip: 97103>,46.12,-123.67
Lincoln Boyhood NMEM,47552,6,7,5,8,2,greenyellow,,38.11,-86.99
Lincoln Home NHS,62701,5,7,4,6,1,yellow,,39.8,-89.65
Lincoln Memorial,20037,5,4,7,6,2,yellow,,38.89,-77.03
Little Bighorn Battlefield NM,59022,7,8,6,9,1,green,<Zip: 59022>,45.62,-107.32
Little River Canyon NPRES,35984,6,7,5,8,12,greenyellow,<Zip: 35984>,34.56,-85.58
Little Rock Central High School NHS,72202,7,9,4,11,12,green,<Zip: 72202>,34.72,-92.35
Longfellow NHS,2138,7,8,9,6,1,green,<Zip: 02138>,42.37,-71.11
Lowell NHP,1852,7,8,2,11,12,green,<Zip: 01852>,42.63,-71.32
Lyndon B Johnson NHP,78671,4,3,5,10,8,gold,<Zip: 78671>,30.2,-98.65
LBJ Memorial Grove on the Potomac,20037,7,6,5,8,1,green,,38.89,-77.03
Maggie L Walker NHS,23219,7,10,2,4,9,green,,37.54,-77.43
Mammoth Cave NP,42259,7,8,6,5,2,green,<Zip: 42259>,37.2,-86.1
Manassas NBP,20109,4,5,7,3,1,gold,,38.79,-77.51
Manzanar NHS,93526,8,7,6,4,1,teal,<Zip: 93526>,36.83,-118.24
Marsh-Billings-Rockefeller NHP,5091,10,8,9,7,4,slateblue,<Zip: 05091>,43.62,-72.51
"Martin Luther King, Jr Memorial",20024,4,5,6,7,2,gold,,38.88,-77.02
"Martin Luther King, Jr NHS",30312,1,7,6,5,9,red,,33.74,-84.38
Martin Van Buren NHS,12106,9,8,7,10,1,blue,<Zip: 12106>,42.39,-73.7
Mary McLeod Bethune Council House NHS,20005,2,7,6,3,1,coral,,38.9,-77.03
Mesa Verde NP,81328,7,6,8,9,1,green,<Zip: 81328>,37.34,-108.29
Minute Man NHP,1742,4,7,6,10,2,gold,<Zip: 01742>,42.45,-71.35
Minuteman Missile NHS,57567,7,6,8,9,1,green,<Zip: 57567>,44.04,-101.66
Mississippi NRRA,55107,5,10,7,9,12,yellow,<Zip: 55107>,44.94,-93.1
Missouri NRR,68730,7,8,6,9,1,green,<Zip: 68730>,42.73,-97.49
Mojave NPRES,92309,11,4,5,3,7,blueviolet,<Zip: 92309>,35.31,-116.04
Monocacy NB,21704,7,5,6,10,2,green,,39.36,-77.37
Montezuma Castle NM,86322,3,4,5,7,12,orange,<Zip: 86322>,34.48,-111.78
Moores Creek NB,28435,2,5,6,4,1,coral,,34.43,-78.1
Morristown NHP,7960,6,7,9,10,12,greenyellow,<Zip: 07960>,40.79,-74.47
Mount Rainier NP,98304,8,7,9,6,2,teal,<Zip: 98304>,46.77,-122
Mount Rushmore NMEM,57751,7,8,6,9,1,green,<Zip: 57751>,43.89,-103.42
Muir Woods NM,94941,7,8,6,5,1,green,<Zip: 94941>,37.89,-122.56
Natchez NHP,39120,3,4,5,10,1,orange,<Zip: 39120>,31.54,-91.38
Natchez Trace PKWY,39150,7,10,6,4,12,green,<Zip: 39150>,31.95,-90.98
National Capital Parks Central,20020,7,4,6,8,2,green,,38.86,-76.97
National Park of American Samoa,96799,9,7,4,11,8,blue,<Zip: 96799>,-14.27,-170.7
Natural Bridges NM,84533,5,9,6,7,1,yellow,<Zip: 84533>,37.57,-110.32
Navajo NM,86054,7,8,6,5,1,green,<Zip: 86054>,36.72,-110.62
New Bedford Whaling NHP,2740,7,8,9,6,1,green,<Zip: 02740>,41.66,-70.93
New River Gorge NR,25846,7,8,6,10,1,green,<Zip: 25846>,37.93,-81.17
Nez Perce NHP,83540,7,8,6,9,12,green,<Zip: 83540>,46.32,-116.78
Nicodemus NHS,67625,7,6,5,8,1,green,<Zip: 67625>,39.35,-99.68
Ninety Six NHS,29666,4,5,10,6,1,gold,,34.14,-82
Niobrara NSR,68778,7,8,6,9,2,green,<Zip: 68778>,42.82,-99.74
Noatak NPRES,99761,7,9,8,10,2,green,<Zip: 99761>,67.57,-163
North Cascades NP,98283,8,7,9,6,1,teal,<Zip: 98283>,48.56,-121.54
Obed W&SR,38558,6,7,5,4,1,greenyellow,<Zip: 38558>,35.95,-85.03
Ocmulgee NM,31217,9,4,3,11,12,blue,<Zip: 31217>,32.83,-83.65
Olympic NP,98362,8,7,9,6,1,teal,<Zip: 98362>,47.99,-123.25
Oregon Caves NM,97523,7,8,6,9,2,green,<Zip: 97523>,42.11,-123.6
Organ Pipe Cactus NM,85321,2,3,1,4,8,coral,<Zip: 85321>,32.15,-112.62
Ozark NSR,63965,7,8,6,9,2,green,<Zip: 63965>,37,-91.01
Padre Island NS,78418,7,6,8,3,12,green,<Zip: 78418>,27.8,-97.39
Palo Alto Battlefield NHP,78526,2,3,1,11,8,coral,<Zip: 78526>,25.92,-97.48
Pea Ridge NMP,72732,7,5,3,6,1,green,<Zip: 72732>,36.45,-93.96
Pecos NHP,87552,7,8,6,5,1,green,<Zip: 87552>,35.57,-105.67
Pennsylvania Avenue NHS,20001,7,6,4,8,1,green,,38.89,-77.03
Perry's Victory & Intl Peace MEM,43456,7,8,6,9,2,green,<Zip: 43456>,41.64,-82.82
Petersburg NB,23803,7,6,8,5,1,green,,37.21,-77.43
Petrified Forest NP,86028,7,6,8,5,1,green,<Zip: 86028>,34.79,-109.87
Petroglyph NM,87120,10,7,5,6,1,slateblue,<Zip: 87120>,35.11,-106.62
Pictured Rocks NL,49862,8,7,9,6,11,teal,,46.37,-86.7
Pinnacles NP,95043,4,5,3,8,1,gold,<Zip: 95043>,36.53,-120.96
Pipe Spring NM,86022,5,9,6,7,1,yellow,<Zip: 86022>,36.74,-112.11
Pipestone NM,56164,7,8,6,5,1,green,<Zip: 56164>,44,-96.31
Piscataway Park,20607,7,5,6,8,1,green,,38.67,-77.01
Point Reyes NS,94956,7,8,6,9,12,green,<Zip: 94956>,38.07,-122.86
Port Chicago Naval Magazine NM,94520,7,10,11,3,6,green,<Zip: 94520>,38,-122.03
President WJ Clinton Birthplace Home NHS,71801,7,6,3,8,1,green,<Zip: 71801>,33.66,-93.59
Prince William Forest Park,22172,6,7,8,5,12,greenyellow,,38.55,-77.35
Pu'uhonua o Honaunau NHP,96704,5,3,7,2,9,yellow,<Zip: 96704>,19.5,-155.9
Pu'ukohola Heiau NHS,96743,8,3,1,5,9,teal,<Zip: 96743>,20.04,-155.7
Rainbow Bridge NM,86040,7,6,8,9,1,green,<Zip: 86040>,36.68,-111.41
Redwood NP,95570,7,8,6,9,2,green,<Zip: 95570>,41.13,-124.04
Richmond NBP,23219,7,5,10,4,12,green,,37.54,-77.43
Rio Grande W&SR,87529,3,4,11,12,8,orange,<Zip: 87529>,36.43,-105.65
River Raisin NBP,48162,8,9,7,6,2,teal,,41.92,-83.38
Rock Creek Park,20008,8,7,6,10,12,teal,,38.87,-77.1
Rocky Mountain NP,80517,7,8,6,9,2,green,<Zip: 80517>,40.37,-105.52
Roger Williams NMEM,2903,7,6,8,5,1,green,<Zip: 02903>,41.82,-71.41
Rosie the Riveter WWII Home Front,94804,7,11,8,5,2,green,<Zip: 94804>,37.92,-122.34
Ross Lake NRA,98283,8,7,6,9,12,teal,<Zip: 98283>,48.56,-121.54
Russell Cave NM,35740,5,7,6,9,1,yellow,<Zip: 35740>,34.94,-85.71
Sagamore Hill NHS,11771,7,8,6,10,1,green,<Zip: 11771>,40.86,-73.53
Saguaro NP,85743,3,2,4,1,9,orange,<Zip: 85743>,32.3,-111.16
Saint Croix Island International Historic Site,4619,8,7,9,6,12,teal,<Zip: 04619>,45.13,-67.2
Saint Croix NSR,54024,8,7,9,6,2,teal,<Zip: 54024>,45.4,-92.63
Saint Paul's Church NHS,10550,10,2,5,6,9,slateblue,<Zip: 10550>,40.91,-73.82
Saint-Gaudens NHS,3745,7,8,6,9,1,green,<Zip: 03745>,43.48,-72.32
Salem Maritime NHS,1970,10,7,8,6,1,slateblue,<Zip: 01970>,42.51,-70.9
Salinas Pueblo Missions NM,87036,7,10,5,9,12,green,<Zip: 87036>,34.52,-106.24
Salt River Bay NHP & Ecological Pres,820,12,3,2,4,9,darkmagenta,<Zip: 00820>,17.74,-64.7
San Antonio Missions NHP,78214,6,3,7,4,11,greenyellow,<Zip: 78214>,29.45,-98.5
San Francisco Maritime NHP,94109,7,8,6,5,1,green,<Zip: 94109>,37.79,-122.42
San Juan Island NHP,98250,7,8,6,9,1,green,<Zip: 98250>,48.53,-123.06
San Juan NHS,901,3,7,4,12,9,orange,<Zip: 00901>,18.4,-66.06
Sand Creek Massacre NHS,81036,6,7,11,9,1,greenyellow,<Zip: 81036>,38.48,-102.77
Santa Monica Mountains NRA,91302,5,3,7,8,12,yellow,<Zip: 91302>,34.11,-118.67
Saratoga NHP,12170,7,8,9,6,12,green,<Zip: 12170>,42.95,-73.64
Saugus Iron Works NHS,1906,7,6,5,8,1,green,<Zip: 01906>,42.46,-71.01
Scotts Bluff NM,69341,7,6,8,9,1,green,<Zip: 69341>,41.82,-103.66
Sequoia NP,93271,8,7,6,9,2,teal,<Zip: 93271>,36.44,-118.86
Shenandoah NP,22827,10,7,8,6,1,slateblue,,38.4,-78.62
Shiloh NMP,38376,4,5,7,6,12,gold,<Zip: 38376>,35.11,-88.36
Sitka NHP,99835,8,7,6,9,12,teal,<Zip: 99835>,56.73,-135
Sleeping Bear Dunes NL,49636,7,8,6,9,1,green,,44.88,-85.98
Springfield Armory NHS,1105,7,6,8,9,1,green,<Zip: 01105>,42.11,-72.53
Statue Of Liberty NM,11231,7,8,6,5,1,green,<Zip: 11231>,40.64,-73.94
Steamtown NHS,18503,8,7,10,6,1,teal,<Zip: 18503>,41.4,-75.66
Stones River NB,37129,5,7,6,8,2,yellow,<Zip: 37129>,35.85,-86.39
Sunset Crater Volcano NM,86004,7,6,8,5,1,green,<Zip: 86004>,35.29,-111.32
Tallgrass Prairie NPRES,66869,6,5,7,9,1,greenyellow,<Zip: 66869>,38.39,-96.53
Thaddeus Kosciuszko NMEM,19106,7,8,5,6,1,green,<Zip: 19106>,39.95,-75.16
Theodore Roosevelt Birthplace NHS,10003,10,3,4,5,9,slateblue,<Zip: 10003>,40.71,-73.99
Theodore Roosevelt Inaugural NHS,14202,6,12,8,7,1,greenyellow,<Zip: 14202>,42.88,-78.85
Theodore Roosevelt Island,20566,7,6,8,9,1,green,,38.89,-77.03
Theodore Roosevelt NP,58645,7,8,6,9,1,green,<Zip: 58645>,46.91,-103.52
Thomas Edison NHP,7052,8,7,6,11,1,teal,<Zip: 07052>,40.79,-74.26
Thomas Jefferson MEM,20242,4,5,6,7,1,gold,,38.89,-77.03
Thomas Stone NHS,20677,7,5,4,9,1,green,,38.5,-77.03
Timpanogos Cave NM,84604,7,8,6,9,2,green,<Zip: 84604>,40.33,-111.57
Timucuan EHP,32225,7,6,4,5,1,green,<Zip: 32225>,30.33,-81.65
Tonto NM,85545,3,2,4,1,8,orange,<Zip: 85545>,33.62,-111.03
Tumacacori NHP,85640,12,3,2,4,8,darkmagenta,<Zip: 85640>,31.55,-111.03
Tupelo NBS,38801,8,7,10,4,2,teal,<Zip: 38801>,34.26,-88.73
Tuskegee Airmen NHS,36083,7,6,2,5,12,green,<Zip: 36083>,32.43,-85.71
Tuskegee Institute NHS,36088,3,4,2,6,12,orange,<Zip: 36088>,32.42,-85.71
Tuzigoot NM,86324,3,4,5,10,12,orange,<Zip: 86324>,34.79,-112.1
Ulysses S Grant NHS,63123,7,6,8,5,1,green,,38.54,-90.32
Upper Delaware S&RR,18405,7,8,9,6,12,green,<Zip: 18405>,41.6,-75.15
Valley Forge NHP,19406,7,6,8,5,1,green,<Zip: 19406>,40.09,-75.38
Vanderbilt Mansion NHS,12538,7,6,8,10,2,green,<Zip: 12538>,41.78,-73.93
Vicksburg NMP,39183,6,7,4,5,12,greenyellow,<Zip: 39183>,32.32,-90.87
Vietnam Veterans MEM,20007,5,4,6,7,1,yellow,,38.89,-77.03
Virgin Islands NP,830,3,4,2,1,9,orange,<Zip: 00830>,18.33,-64.79
Voyageurs NP,56649,7,8,6,5,4,green,<Zip: 56649>,48.58,-93.4
Walnut Canyon NM,86004,7,6,5,4,1,green,<Zip: 86004>,35.29,-111.32
War in the Pacific NHP,96818,3,2,6,4,1,orange,<Zip: 96818>,21.3,-157.85
Washington Monument,20007,8,7,6,5,2,teal,,38.89,-77.03
Washita Battlefield NHS,73628,7,5,6,4,2,green,<Zip: 73628>,35.61,-99.67
Weir Farm NHS,6897,7,10,8,9,1,green,<Zip: 06897>,41.18,-73.42
Whiskeytown NRA,96095,7,6,8,5,12,green,<Zip: 96095>,40.7,-122.6
White House,20500,4,10,12,7,1,gold,,38.89,-77.03
White Sands NM,88002,7,3,5,6,1,green,<Zip: 88002>,32.26,-106.47
Whitman Mission NHS,99362,5,6,9,7,12,yellow,<Zip: 99362>,46.11,-118.3
William Howard Taft NHS,45219,7,8,6,4,1,green,<Zip: 45219>,39.09,-84.51
Wilson's Creek NB,65738,8,7,6,5,1,teal,<Zip: 65738>,37.11,-93.47
Wind Cave NP,57738,7,8,6,9,2,green,<Zip: 57738>,43.68,-103.2
Wolf Trap NP for the Performing Arts,22182,7,8,6,9,11,green,,38.92,-77.25
Women's Rights NHP,13148,7,8,6,10,1,green,<Zip: 13148>,42.91,-76.79
World War II Memorial,20006,5,4,6,7,2,yellow,,38.89,-77.03
Wrangell-St Elias NP & PRES,99573,7,8,6,9,1,green,<Zip: 99573>,61.68,-145.14
Wright Brothers NMEM,27948,7,8,6,5,2,green,,36.02,-75.67
Wupatki NM,86004,7,6,8,9,1,green,<Zip: 86004>,35.29,-111.32
Yellowstone NP,82190,7,8,6,9,11,green,<Zip: 82190>,44.57,-110.51
Yosemite NP,95389,8,7,6,9,1,teal,<Zip: 95389>,37.69,-119.59
Yukon-Charley Rivers NPRES,99709,8,7,6,9,11,teal,<Zip: 99709>,64.9,-148.16
Zion NP,84737,7,8,6,9,1,green,<Zip: 84737>,37.13,-112.97
